CCSDS_OMM_VERS = 2.0
CREATION_DATE  = 
ORIGINATOR     = 

OBJECT_NAME    = SL-3 R/B
OBJECT_ID      = 1982-079B
CENTER_NAME    = EARTH
REF_FRAME      = TEME
TIME_SYSTEM    = UTC
MEAN_ELEMENT_THEORY = SGP/SGP4

EPOCH          = 2026-01-24T11:49:51.682656
MEAN_MOTION    = 15.24164859
ECCENTRICITY   = .0024593
INCLINATION    = 81.1442
RA_OF_ASC_NODE = 245.2455
ARG_OF_PERICENTER = 317.9951
MEAN_ANOMALY   = 41.9395

EPHEMERIS_TYPE = 0
CLASSIFICATION_TYPE = U
NORAD_CAT_ID   = 13403
ELEMENT_SET_NO = 999
REV_AT_EPOCH   = 37096
BSTAR          = .34747E-3
MEAN_MOTION_DOT = .8555E-4
MEAN_MOTION_DDOT = 0

CCSDS_OMM_VERS = 2.0
CREATION_DATE  = 
ORIGINATOR     = 

OBJECT_NAME    = SL-14 R/B
OBJECT_ID      = 1982-092B
CENTER_NAME    = EARTH
REF_FRAME      = TEME
TIME_SYSTEM    = UTC
MEAN_ELEMENT_THEORY = SGP/SGP4

EPOCH          = 2026-01-24T11:44:45.470688
MEAN_MOTION    = 14.86609837
ECCENTRICITY   = .0021887
INCLINATION    = 82.5681
RA_OF_ASC_NODE = 182.7290
ARG_OF_PERICENTER = 88.1008
MEAN_ANOMALY   = 330.8037

EPHEMERIS_TYPE = 0
CLASSIFICATION_TYPE = U
NORAD_CAT_ID   = 13553
ELEMENT_SET_NO = 999
REV_AT_EPOCH   = 32236
BSTAR          = .11079E-3
MEAN_MOTION_DOT = .1011E-4
MEAN_MOTION_DDOT = 0

CCSDS_OMM_VERS = 2.0
CREATION_DATE  = 
ORIGINATOR     = 

OBJECT_NAME    = SL-3 R/B
OBJECT_ID      = 1983-010B
CENTER_NAME    = EARTH
REF_FRAME      = TEME
TIME_SYSTEM    = UTC
MEAN_ELEMENT_THEORY = SGP/SGP4

EPOCH          = 2026-01-24T08:20:26.164320
MEAN_MOTION    = 15.44792897
ECCENTRICITY   = .0016712
INCLINATION    = 81.1018
RA_OF_ASC_NODE = 56.5541
ARG_OF_PERICENTER = 196.4216
MEAN_ANOMALY   = 163.6489

EPHEMERIS_TYPE = 0
CLASSIFICATION_TYPE = U
NORAD_CAT_ID   = 13819
ELEMENT_SET_NO = 999
REV_AT_EPOCH   = 35109
BSTAR          = .41914E-3
MEAN_MOTION_DOT = .19773E-3
MEAN_MOTION_DDOT = 0

CCSDS_OMM_VERS = 2.0
CREATION_DATE  = 
ORIGINATOR     = 

OBJECT_NAME    = SL-3 R/B
OBJECT_ID      = 1983-075B
CENTER_NAME    = EARTH
REF_FRAME      = TEME
TIME_SYSTEM    = UTC
MEAN_ELEMENT_THEORY = SGP/SGP4

EPOCH          = 2026-01-24T10:34:08.179680
MEAN_MOTION    = 15.37200850
ECCENTRICITY   = .0023385
INCLINATION    = 97.6127
RA_OF_ASC_NODE = 27.3932
ARG_OF_PERICENTER = 32.6263
MEAN_ANOMALY   = 327.6420

EPHEMERIS_TYPE = 0
CLASSIFICATION_TYPE = U
NORAD_CAT_ID   = 14208
ELEMENT_SET_NO = 999
REV_AT_EPOCH   = 32335
BSTAR          = .47692E-3
MEAN_MOTION_DOT = .17464E-3
MEAN_MOTION_DDOT = 0

CCSDS_OMM_VERS = 2.0
CREATION_DATE  = 
ORIGINATOR     = 

OBJECT_NAME    = COSMOS 1536
OBJECT_ID      = 1984-013A
CENTER_NAME    = EARTH
REF_FRAME      = TEME
TIME_SYSTEM    = UTC
MEAN_ELEMENT_THEORY = SGP/SGP4

EPOCH          = 2026-01-24T09:16:02.652384
MEAN_MOTION    = 15.23173474
ECCENTRICITY   = .0015702
INCLINATION    = 82.5470
RA_OF_ASC_NODE = 151.8537
ARG_OF_PERICENTER = 79.8546
MEAN_ANOMALY   = 280.4461

EPHEMERIS_TYPE = 0
CLASSIFICATION_TYPE = U
NORAD_CAT_ID   = 14699
ELEMENT_SET_NO = 999
REV_AT_EPOCH   = 26587
BSTAR          = .43478E-3
MEAN_MOTION_DOT = .10343E-3
MEAN_MOTION_DDOT = 0

CCSDS_OMM_VERS = 2.0
CREATION_DATE  = 
ORIGINATOR     = 

OBJECT_NAME    = SL-14 R/B
OBJECT_ID      = 1984-027B
CENTER_NAME    = EARTH
REF_FRAME      = TEME
TIME_SYSTEM    = UTC
MEAN_ELEMENT_THEORY = SGP/SGP4

EPOCH          = 2026-01-24T10:50:33.220896
MEAN_MOTION    = 14.85929150
ECCENTRICITY   = .0019347
INCLINATION    = 82.5424
RA_OF_ASC_NODE = 286.5072
ARG_OF_PERICENTER = 117.5134
MEAN_ANOMALY   = 242.8051

EPHEMERIS_TYPE = 0
CLASSIFICATION_TYPE = U
NORAD_CAT_ID   = 14820
ELEMENT_SET_NO = 999
REV_AT_EPOCH   = 24106
BSTAR          = .96734E-4
MEAN_MOTION_DOT = .871E-5
MEAN_MOTION_DDOT = 0

CCSDS_OMM_VERS = 2.0
CREATION_DATE  = 
ORIGINATOR     = 

OBJECT_NAME    = SL-8 R/B
OBJECT_ID      = 1985-006B
CENTER_NAME    = EARTH
REF_FRAME      = TEME
TIME_SYSTEM    = UTC
MEAN_ELEMENT_THEORY = SGP/SGP4

EPOCH          = 2026-01-24T08:18:41.602176
MEAN_MOTION    = 14.37756023
ECCENTRICITY   = .0019776
INCLINATION    = 74.0472
RA_OF_ASC_NODE = 342.7397
ARG_OF_PERICENTER = 268.2853
MEAN_ANOMALY   = 209.2482

EPHEMERIS_TYPE = 0
CLASSIFICATION_TYPE = U
NORAD_CAT_ID   = 15483
ELEMENT_SET_NO = 999
REV_AT_EPOCH   = 14765
BSTAR          = .20569E-3
MEAN_MOTION_DOT = .594E-5
MEAN_MOTION_DDOT = 0

CCSDS_OMM_VERS = 2.0
CREATION_DATE  = 
ORIGINATOR     = 

OBJECT_NAME    = SL-12 R/B(2)
OBJECT_ID      = 1985-042D
CENTER_NAME    = EARTH
REF_FRAME      = TEME
TIME_SYSTEM    = UTC
MEAN_ELEMENT_THEORY = SGP/SGP4

EPOCH          = 2026-01-24T10:43:51.348576
MEAN_MOTION    = 14.21967122
ECCENTRICITY   = .0035881
INCLINATION    = 71.1070
RA_OF_ASC_NODE = 181.1962
ARG_OF_PERICENTER = 197.9690
MEAN_ANOMALY   = 226.3550

EPHEMERIS_TYPE = 0
CLASSIFICATION_TYPE = U
NORAD_CAT_ID   = 15772
ELEMENT_SET_NO = 999
REV_AT_EPOCH   = 10810
BSTAR          = .11201E-3
MEAN_MOTION_DOT = .201E-5
MEAN_MOTION_DDOT = 0

CCSDS_OMM_VERS = 2.0
CREATION_DATE  = 
ORIGINATOR     = 

OBJECT_NAME    = SL-14 R/B
OBJECT_ID      = 1985-069B
CENTER_NAME    = EARTH
REF_FRAME      = TEME
TIME_SYSTEM    = UTC
MEAN_ELEMENT_THEORY = SGP/SGP4

EPOCH          = 2026-01-24T04:20:11.563296
MEAN_MOTION    = 14.86378135
ECCENTRICITY   = .0018324
INCLINATION    = 82.5246
RA_OF_ASC_NODE = 66.7980
ARG_OF_PERICENTER = 344.6158
MEAN_ANOMALY   = 15.4499

EPHEMERIS_TYPE = 0
CLASSIFICATION_TYPE = U
NORAD_CAT_ID   = 15945
ELEMENT_SET_NO = 999
REV_AT_EPOCH   = 16622
BSTAR          = .93715E-4
MEAN_MOTION_DOT = .853E-5
MEAN_MOTION_DDOT = 0

CCSDS_OMM_VERS = 2.0
CREATION_DATE  = 
ORIGINATOR     = 

OBJECT_NAME    = SL-16 R/B
OBJECT_ID      = 1985-097B
CENTER_NAME    = EARTH
REF_FRAME      = TEME
TIME_SYSTEM    = UTC
MEAN_ELEMENT_THEORY = SGP/SGP4

EPOCH          = 2026-01-24T07:27:08.000064
MEAN_MOTION    = 14.16590841
ECCENTRICITY   = .00089934
INCLINATION    = 71.0001
RA_OF_ASC_NODE = 233.9813
ARG_OF_PERICENTER = 312.0844
MEAN_ANOMALY   = 220.4140

EPHEMERIS_TYPE = 0
CLASSIFICATION_TYPE = U
NORAD_CAT_ID   = 16182
ELEMENT_SET_NO = 999
REV_AT_EPOCH   = 8094
BSTAR          = -.3811244E-5
MEAN_MOTION_DOT = -.56E-6
MEAN_MOTION_DDOT = 0

CCSDS_OMM_VERS = 2.0
CREATION_DATE  = 
ORIGINATOR     = 

OBJECT_NAME    = SL-14 R/B
OBJECT_ID      = 1986-006B
CENTER_NAME    = EARTH
REF_FRAME      = TEME
TIME_SYSTEM    = UTC
MEAN_ELEMENT_THEORY = SGP/SGP4

EPOCH          = 2026-01-24T12:08:25.268928
MEAN_MOTION    = 14.86743572
ECCENTRICITY   = .0078068
INCLINATION    = 82.5287
RA_OF_ASC_NODE = 301.3177
ARG_OF_PERICENTER = 59.7417
MEAN_ANOMALY   = 301.1497

EPHEMERIS_TYPE = 0
CLASSIFICATION_TYPE = U
NORAD_CAT_ID   = 16496
ELEMENT_SET_NO = 999
REV_AT_EPOCH   = 14264
BSTAR          = .14618E-3
MEAN_MOTION_DOT = .1402E-4
MEAN_MOTION_DDOT = 0

CCSDS_OMM_VERS = 2.0
CREATION_DATE  = 
ORIGINATOR     = 

OBJECT_NAME    = COSMOS 1743
OBJECT_ID      = 1986-034A
CENTER_NAME    = EARTH
REF_FRAME      = TEME
TIME_SYSTEM    = UTC
MEAN_ELEMENT_THEORY = SGP/SGP4

EPOCH          = 2026-01-24T07:03:18.194976
MEAN_MOTION    = 15.55201217
ECCENTRICITY   = .0005402
INCLINATION    = 82.5346
RA_OF_ASC_NODE = 120.2985
ARG_OF_PERICENTER = 97.4173
MEAN_ANOMALY   = 262.7695

EPHEMERIS_TYPE = 0
CLASSIFICATION_TYPE = U
NORAD_CAT_ID   = 16719
ELEMENT_SET_NO = 999
REV_AT_EPOCH   = 17334
BSTAR          = .70768E-3
MEAN_MOTION_DOT = .48044E-3
MEAN_MOTION_DDOT = 0

