SL-3 R/B                
1 13403U 82079B   26024.49295929  .00008555  00000+0  34747-3 0  9990
2 13403  81.1442 245.2455 0024593 317.9951  41.9395 15.24164859370969
SL-14 R/B               
1 13553U 82092B   26024.48941517  .00001011  00000+0  11079-3 0  9994
2 13553  82.5681 182.7290 0021887  88.1008 330.8037 14.86609837322361
SL-3 R/B                
1 13819U 83010B   26024.34752505  .00019773  00000+0  41914-3 0  9997
2 13819  81.1018  56.5541 0016712 196.4216 163.6489 15.44792897351096
SL-3 R/B                
1 14208U 83075B   26024.44037245  .00017464  00000+0  47692-3 0  9993
2 14208  97.6127  27.3932 0023385  32.6263 327.6420 15.37200850323359
COSMOS 1536             
1 14699U 84013A   26024.38614181  .00010343  00000+0  43478-3 0  9990
2 14699  82.5470 151.8537 0015702  79.8546 280.4461 15.23173474265871
SL-14 R/B               
1 14820U 84027B   26024.45177339  .00000871  00000+0  96734-4 0  9997
2 14820  82.5424 286.5072 0019347 117.5134 242.8051 14.85929150241067
SL-8 R/B                
1 15483U 85006B   26024.34631484  .00000594  00000+0  20569-3 0  9999
2 15483  74.0472 342.7397 0019776 268.2853 209.2482 14.37756023147654
SL-12 R/B(2)            
1 15772U 85042D   26024.44712209  .00000201  00000+0  11201-3 0  9994
2 15772  71.1070 181.1962 0035881 197.9690 226.3550 14.21967122108102
SL-14 R/B               
1 15945U 85069B   26024.18068939  .00000853  00000+0  93715-4 0  9994
2 15945  82.5246  66.7980 0018324 344.6158  15.4499 14.86378135166223
SL-16 R/B               
1 16182U 85097B   26024.31050926 -.00000056  00000+0 -38112-5 0  9999
2 16182  71.0001 233.9813 0008993 312.0844 220.4140 14.16590841 80942
SL-14 R/B               
1 16496U 86006B   26024.50584802  .00001402  00000+0  14618-3 0  9991
2 16496  82.5287 301.3177 0078068  59.7417 301.1497 14.86743572142643
COSMOS 1743             
1 16719U 86034A   26024.29396059  .00048044  00000+0  70768-3 0  9992
2 16719  82.5346 120.2985 0005402  97.4173 262.7695 15.55201217173347
